[{"OBJECT_NAME":"STARLINK-30208","OBJECT_ID":"2023-102M","EPOCH":"2026-03-09T22:00:01.999584","MEAN_MOTION":15.18316824,"ECCENTRICITY":0.00014024,"INCLINATION":42.9996,"RA_OF_ASC_NODE":246.5084,"ARG_OF_PERICENTER":264.9324,"MEAN_ANOMALY":100.8486,"EPHEMERIS_TYPE":0,"CLASSIFICATION_TYPE":"U","NORAD_CAT_ID":57415,"ELEMENT_SET_NO":999,"REV_AT_EPOCH":577,"BSTAR":0.005884723,"MEAN_MOTION_DOT":0.00124918,"MEAN_MOTION_DDOT":0},{"OBJECT_NAME":"IOD-2","OBJECT_ID":"2025-135L","EPOCH":"2026-03-09T21:44:49.218144","MEAN_MOTION":15.19495389,"ECCENTRICITY":0.00054449,"INCLINATION":97.4569,"RA_OF_ASC_NODE":184.5694,"ARG_OF_PERICENTER":150.699,"MEAN_ANOMALY":209.4552,"EPHEMERIS_TYPE":0,"CLASSIFICATION_TYPE":"U","NORAD_CAT_ID":64538,"ELEMENT_SET_NO":999,"REV_AT_EPOCH":3974,"BSTAR":0.00029035696,"MEAN_MOTION_DOT":6.098e-5,"MEAN_MOTION_DDOT":0}]
